STARLINK-31969          
1 59889U 24100E   26130.06414712 -.00000441  00000+0 -65186-5 0  9994
2 59889  43.0030 135.3071 0000971 284.5702  75.5042 15.27572279110581
STARLINK-31951          
1 59890U 24100F   26129.72386864 -.00001113  00000+0 -30935-4 0  9993
2 59890  42.9993 140.5028 0001037 286.9242  73.1496 15.27581687110397
STARLINK-31949          
1 59891U 24100G   26130.06237852 -.00001104  00000+0 -30626-4 0  9992
2 59891  43.0015 138.7386 0001014 277.4003  82.6733 15.27568499110447
STARLINK-31977          
1 59892U 24100H   26130.04278529 -.00000015  00000+0  89719-5 0  9994
2 59892  43.0022 131.6764 0000876 282.7656  77.3098 15.27572670110627
STARLINK-31963          
1 59893U 24100J   26129.74958039 -.00000235  00000+0  97815-6 0  9992
2 59893  43.0050 140.6994 0001378 276.1276  83.9419 15.27569615110497
STARLINK-31961          
1 59894U 24100K   26129.99539336  .00001814  00000+0  75458-4 0  9995
2 59894  43.0044 132.1802 0001351 269.0655  91.0042 15.27567084110612
STARLINK-31964          
1 59895U 24100L   26130.04053494 -.00001007  00000+0 -27066-4 0  9998
2 59895  43.0016 138.5773 0001250 270.7784  89.2924 15.27570424110495
STARLINK-31905          
1 59896U 24100M   26130.00904061 -.00000326  00000+0 -23210-5 0  9991
2 59896  43.0046 135.7465 0001650 275.1480  84.9183 15.27571973110570
STARLINK-31928          
1 59897U 24100N   26130.02268749 -.00000281  00000+0 -69920-6 0  9999
2 59897  43.0021 139.3081 0001421 275.3659  84.7031 15.27579242110436
STARLINK-31953          
1 59898U 24100P   26130.00518950  .00001180  00000+0  52411-4 0  9992
2 59898  43.0041 135.7185 0001572 279.6880  80.3794 15.27585813110578
STARLINK-31942          
1 59899U 24100Q   26130.05466803 -.00000653  00000+0 -14202-4 0  9999
2 59899  42.9997 138.6857 0001173 273.7138  86.3580 15.27570379110539
STARLINK-31676          
1 59900U 24100R   26130.00726981 -.00001013  00000+0 -27286-4 0  9990
2 59900  43.0031 139.1923 0001054 270.4802  89.5929 15.27575079110425
STARLINK-31908          
1 59901U 24100S   26129.72999909  .00000159  00000+0  15310-4 0  9993
2 59901  43.0046 133.6294 0001330 262.6660  97.4040 15.27575206110563
STARLINK-31914          
1 59902U 24100T   26129.75728501  .00000359  00000+0  22567-4 0  9999
2 59902  43.0030 140.7527 0001534 278.0065  82.0612 15.27575917110385
STARLINK-31850          
1 59903U 24100U   26130.04567326 -.00001470  00000+0 -43932-4 0  9996
2 59903  43.0018 138.6050 0001135 284.6717  75.4009 15.27564614110482
STARLINK-31924          
1 59904U 24100V   26129.73158473 -.00001007  00000+0 -27059-4 0  9998
2 59904  43.0014 140.5594 0001257 276.7696  83.3013 15.27578283110487
STARLINK-31898          
1 59905U 24100W   26129.74107460 -.00000563  00000+0 -10960-4 0  9999
2 59905  43.0035 137.1752 0000310 304.4370  55.6452 15.27568810110525
STARLINK-31861          
1 59906U 24100X   26130.05177831 -.00001143  00000+0 -32038-4 0  9990
2 59906  43.0046 131.7141 0001295 266.5379  93.5325 15.27574094110611
STARLINK-31920          
1 59907U 24100Y   26130.00004630  .00091275  00000+0  17477-2 0  9993
2 59907  42.9941  99.2046 0016586 156.3960  37.1112 15.46895053  5913
EARTHCARE               
1 59908U 24101A   26130.07175711  .00008979  00000+0  12565-3 0  9994
2 59908  97.0466 257.0988 0001529 101.1965 258.9463 15.57033812110637
TIANQI-25               
1 59909U 24102A   26130.18190854 -.00000017  00000+0  76674-4 0  9991
2 59909  44.9772  71.0599 0010518  53.3472 306.8326 13.99156009 99589
TIANQI-26               
1 59910U 24102B   26130.16356816 -.00000002  00000+0  86816-4 0  9996
2 59910  44.9734  70.7480 0009304  56.2503 303.9214 13.99168829 99589
TIANQI-27               
1 59911U 24102C   26130.19871150 -.00000009  00000+0  82367-4 0  9997
2 59911  44.9782  70.4735 0006024  62.6354 297.5091 13.99137810 99581
TIANQI-28               
1 59912U 24102D   26130.14670782 -.00000010  00000+0  81432-4 0  9995
2 59912  44.9788  70.9359 0010739  64.0052 296.1886 13.99153070 99576
PAKSAT-MM1              
1 59915U 24104A   26129.54952892  .00000162  00000+0  00000+0 0  9991
2 59915   0.0076 238.0968 0001613 165.4982  59.7261  1.00268133  7142
2024-105A               
1 59917U 24105A   26130.21397412  .00002356  00000+0  12298-3 0  9994
2 59917  97.5854 145.4257 0013465   8.0147 352.1298 15.16870521107271
2024-105B               
1 59918U 24105B   26130.20548749  .00007511  00000+0  36513-3 0  9999
2 59918  97.5846 145.5250 0012619  26.0324 334.1542 15.18652146107280
2024-105C               
1 59919U 24105C   26130.17199888  .00003177  00000+0  15108-3 0  9993
2 59919  97.5804 146.9950 0012113   5.8594 354.2780 15.19885508107390
2024-105D               
1 59920U 24105D   26130.16652951  .00004017  00000+0  17782-3 0  9993
2 59920  97.5845 148.7655 0011434   1.9124 358.2153 15.22198981107473
2024-105E               
1 59921U 24105E   26130.18655839  .00003224  00000+0  15445-3 0  9997
2 59921  97.5814 146.8869 0012112   5.6990 354.4380 15.19610844107385
