OBJECT_NAME,OBJECT_ID,EPOCH,MEAN_MOTION,ECCENTRICITY,INCLINATION,RA_OF_ASC_NODE,ARG_OF_PERICENTER,MEAN_ANOMALY,EPHEMERIS_TYPE,CLASSIFICATION_TYPE,NORAD_CAT_ID,ELEMENT_SET_NO,REV_AT_EPOCH,BSTAR,MEAN_MOTION_DOT,MEAN_MOTION_DDOT
STARLINK-31969,2024-100E,2026-05-10T01:32:22.311168,15.27572279,.0000971,43.0030,135.3071,284.5702,75.5042,0,U,59889,999,11058,-.65186E-5,-.441E-5,0
STARLINK-31951,2024-100F,2026-05-09T17:22:22.250496,15.27581687,.00010371,42.9993,140.5028,286.9242,73.1496,0,U,59890,999,11039,-.30934907E-4,-.1113E-4,0
STARLINK-31949,2024-100G,2026-05-10T01:29:49.504128,15.27568499,.0001014,43.0015,138.7386,277.4003,82.6733,0,U,59891,999,11044,-.30626E-4,-.1104E-4,0
STARLINK-31977,2024-100H,2026-05-10T01:01:36.649056,15.27572670,.0000876,43.0022,131.6764,282.7656,77.3098,0,U,59892,999,11062,.89719E-5,-.15E-6,0
STARLINK-31963,2024-100J,2026-05-09T17:59:23.745696,15.27569615,.00013789,43.0050,140.6994,276.1276,83.9419,0,U,59893,999,11049,.978154E-6,-.235E-5,0
STARLINK-31961,2024-100K,2026-05-09T23:53:21.986304,15.27567084,.0001351,43.0044,132.1802,269.0655,91.0042,0,U,59894,999,11061,.75458E-4,.1814E-4,0
STARLINK-31964,2024-100L,2026-05-10T00:58:22.218816,15.27570424,.000125,43.0016,138.5773,270.7784,89.2924,0,U,59895,999,11049,-.27066E-4,-.1007E-4,0
STARLINK-31905,2024-100M,2026-05-10T00:13:01.108704,15.27571973,.000165,43.0046,135.7465,275.1480,84.9183,0,U,59896,999,11057,-.2321E-5,-.326E-5,0
STARLINK-31928,2024-100N,2026-05-10T00:32:40.199136,15.27579242,.0001421,43.0021,139.3081,275.3659,84.7031,0,U,59897,999,11043,-.6992E-6,-.281E-5,0
STARLINK-31953,2024-100P,2026-05-10T00:07:28.372800,15.27585813,.0001572,43.0041,135.7185,279.6880,80.3794,0,U,59898,999,11057,.52411E-4,.118E-4,0
STARLINK-31942,2024-100Q,2026-05-10T01:18:43.317792,15.27570379,.0001173,42.9997,138.6857,273.7138,86.3580,0,U,59899,999,11053,-.14202E-4,-.653E-5,0
STARLINK-31676,2024-100R,2026-05-10T00:10:28.111584,15.27575079,.0001054,43.0031,139.1923,270.4802,89.5929,0,U,59900,999,11042,-.27286E-4,-.1013E-4,0
STARLINK-31908,2024-100S,2026-05-09T17:31:11.921376,15.27575206,.00013306,43.0046,133.6294,262.6660,97.4040,0,U,59901,999,11056,.1531029E-4,.159E-5,0
STARLINK-31914,2024-100T,2026-05-09T18:10:29.424864,15.27575917,.00015348,43.0030,140.7527,278.0065,82.0612,0,U,59902,999,11038,.22566765E-4,.359E-5,0
STARLINK-31850,2024-100U,2026-05-10T01:05:46.169664,15.27564614,.0001135,43.0018,138.6050,284.6717,75.4009,0,U,59903,999,11048,-.43932E-4,-.147E-4,0
STARLINK-31924,2024-100V,2026-05-09T17:33:28.920672,15.27578283,.00012576,43.0014,140.5594,276.7696,83.3013,0,U,59904,999,11048,-.27059168E-4,-.1007E-4,0
STARLINK-31898,2024-100W,2026-05-09T17:47:08.845440,15.27568810,.00003107,43.0035,137.1752,304.4370,55.6452,0,U,59905,999,11052,-.10959724E-4,-.563E-5,0
STARLINK-31861,2024-100X,2026-05-10T01:14:33.645984,15.27574094,.0001295,43.0046,131.7141,266.5379,93.5325,0,U,59906,999,11061,-.32038E-4,-.1143E-4,0
STARLINK-31920,2024-100Y,2026-05-10T00:00:04.000320,15.46895053,.0016586,42.9941,99.2046,156.3960,37.1112,0,U,59907,999,591,.17477E-2,.91275E-3,0
EARTHCARE,2024-101A,2026-05-10T01:43:19.814304,15.57033812,.0001529,97.0466,257.0988,101.1965,258.9463,0,U,59908,999,11063,.12565E-3,.8979E-4,0
TIANQI-25,2024-102A,2026-05-10T04:21:56.897856,13.99156009,.0010518,44.9772,71.0599,53.3472,306.8326,0,U,59909,999,9958,.76674E-4,-.17E-6,0
TIANQI-26,2024-102B,2026-05-10T03:55:32.289024,13.99168829,.0009304,44.9734,70.7480,56.2503,303.9214,0,U,59910,999,9958,.86816E-4,-.2E-7,0
TIANQI-27,2024-102C,2026-05-10T04:46:08.673600,13.99137810,.0006024,44.9782,70.4735,62.6354,297.5091,0,U,59911,999,9958,.82367E-4,-.9E-7,0
TIANQI-28,2024-102D,2026-05-10T03:31:15.555648,13.99153070,.0010739,44.9788,70.9359,64.0052,296.1886,0,U,59912,999,9957,.81432E-4,-.1E-6,0
PAKSAT-MM1,2024-104A,2026-05-09T13:11:19.298688,1.00268133,.00016131,0.0076,238.0968,165.4982,59.7261,0,U,59915,999,714,0,.162E-5,0
2024-105A,2024-105A,2026-05-10T05:08:07.363968,15.16870521,.0013465,97.5854,145.4257,8.0147,352.1298,0,U,59917,999,10727,.12298E-3,.2356E-4,0
2024-105B,2024-105B,2026-05-10T04:55:54.119136,15.18652146,.0012619,97.5846,145.5250,26.0324,334.1542,0,U,59918,999,10728,.36513E-3,.7511E-4,0
2024-105C,2024-105C,2026-05-10T04:07:40.703232,15.19885508,.0012113,97.5804,146.9950,5.8594,354.2780,0,U,59919,999,10739,.15108E-3,.3177E-4,0
2024-105D,2024-105D,2026-05-10T03:59:48.149664,15.22198981,.0011434,97.5845,148.7655,1.9124,358.2153,0,U,59920,999,10747,.17782E-3,.4017E-4,0
2024-105E,2024-105E,2026-05-10T04:28:38.644896,15.19610844,.0012112,97.5814,146.8869,5.6990,354.4380,0,U,59921,999,10738,.15445E-3,.3224E-4,0
